Name,Trust type,Total spending 2023/24,Spend per patient (where known),Offsite storage costs 2023/24,Onsite storage costs 2023/24,mrc_total_201718,mrc_total_201819,mrc_total_201920,mrc_total_202021,mrc_total_202122,mrc_total_202223,mrc_total_202324,EPR system,address,lat,long
AIREDALE NHS FOUNDATION TRUST (RCF),Acute,"£715,884",£3.80,0.0,715884.0,498051.0,509991.0,553537.0,559974.0,554805.0,577884.0,715884.0,TPP,"AIREDALE GENERAL HOSPITAL, SKIPTON ROAD, STEETON, KEIGHLEY, BD20 6TD",53.897943,-1.962725
ALDER HEY CHILDREN'S NHS FOUNDATION TRUST (RBS),Acute,"£534,275",-,95580.0,438695.0,71500.0,908441.0,908441.0,908441.0,593662.0,977059.0,534275.0,Meditech Group Limited,"ALDER HEY HOSPITAL, EATON ROAD, WEST DERBY, LIVERPOOL, L12 2AP",53.421247,-2.897796
ASHFORD AND ST PETER'S HOSPITALS NHS FOUNDATION TRUST (RTK),Acute,"£764,964",£2.18,74413.0,690551.0,1054776.0,1054776.0,1155114.0,824923.0,900181.0,976980.0,764964.0,Oracle Cerner Corporation,"ST PETERS HOSPITAL, GUILDFORD ROAD, CHERTSEY, KT16 0PZ",51.377832,-0.52706
AVON AND WILTSHIRE MENTAL HEALTH PARTNERSHIP NHS TRUST (RVN),Mental Health and Community (Combined),"£229,350",-,0.0,229350.0,160455.0,177070.0,175827.0,173573.0,175498.0,198135.0,229350.0,The Access Group,"BATH NHS HOUSE, NEWBRIDGE HILL, BATH, BA1 3QE",51.388604,-2.392313
"BARKING, HAVERING AND REDBRIDGE UNIVERSITY HOSPITALS NHS TRUST (RF4)",Acute,"£1,971,746",£3.12,226800.0,1744946.0,1581000.0,1730635.0,1786922.0,1843179.0,1960766.0,1971746.0,1971746.0,System C Healthcare Ltd,"QUEENS HOSPITAL, ROM VALLEY WAY, ROMFORD, RM7 0AG",51.568646,0.179031
"BARNET, ENFIELD AND HARINGEY MENTAL HEALTH NHS TRUST (RRP)",Mental Health and Community (Combined),"£411,513",-,185912.0,225601.0,120469.0,178000.0,185473.0,191680.0,395342.0,403248.0,411513.0,Advanced Health and Care Limited,"TRUST HEADQUARTERS BLOCK B2, ST ANN'S HOSPITAL, ST ANN'S ROAD, LONDON, N15 3TH",51.580625,-0.092097
BARNSLEY HOSPITAL NHS FOUNDATION TRUST (RFF),Acute,"£1,056,973",£4.10,65447.0,991526.0,883333.0,855090.0,1135086.0,1299178.0,1215821.0,1216640.0,1056973.0,System C Healthcare Ltd,"GAWBER ROAD, BARNSLEY, S75 2EP",53.559132,-1.499493
BARTS HEALTH NHS TRUST (R1H),Acute,"£8,665,318",£7.38,3011887.0,5653431.0,2031200.0,8001374.0,8221898.0,7987969.0,7987969.0,8185975.0,8665318.0,Oracle Cerner Corporation,"THE ROYAL LONDON HOSPITAL, 80 NEWARK STREET, LONDON, E1 2ES",51.517167,-0.05605
BEDFORDSHIRE HOSPITALS NHS FOUNDATION TRUST (RC9),Acute,"£651,298",£0.94,467887.0,183411.0,178183.0,204092.0,265070.0,1912914.0,568075.0,658466.0,651298.0,Nervecentre Software Ltd,"LEWSEY ROAD, LUTON, LU4 0DZ",51.894284,-0.474178
BERKSHIRE HEALTHCARE NHS FOUNDATION TRUST (RWX),Mental Health and Community (Combined),"£130,986",-,63296.0,67690.0,205310.0,224768.0,125856.0,89105.0,96457.0,116454.0,130986.0,The Access Group,"LONDON HOUSE, LONDON ROAD, BRACKNELL, RG12 2UT",51.416178,-0.74023
BIRMINGHAM AND SOLIHULL MENTAL HEALTH NHS FOUNDATION TRUST (RXT),Mental Health,"£813,386",-,181956.0,631430.0,525574.0,485077.0,579928.0,579141.0,601729.0,719546.0,813386.0,The Access Group,"THE UFFCULME CENTRE, 52 QUEENSBRIDGE ROAD, MOSELEY, BIRMINGHAM, B13 8QY",52.440919,-1.897096
BIRMINGHAM COMMUNITY HEALTHCARE NHS FOUNDATION TRUST (RYW),Community,£0,-,0.0,0.0,0.0,0.0,0.0,0.0,0.0,0.0,0.0,The Access Group,"3 PRIESTLEY WHARF, HOLT STREET, BIRMINGHAM SCIENCE PARK, ASTON, BIRMINGHAM, B7 4BN",52.487324,-1.885826
BIRMINGHAM WOMEN'S AND CHILDREN'S NHS FOUNDATION TRUST (RQ3),Acute,"£652,204",-,652204.0,0.0,403595.0,422015.0,468008.0,498651.0,394299.0,769397.0,652204.0,No EPR -  in process of getting one,"STEELHOUSE LANE, BIRMINGHAM, B4 6NH",52.484769,-1.893813
BLACK COUNTRY HEALTHCARE NHS FOUNDATION TRUST (TAJ),Mental Health and Community (Combined),"£459,701",-,128901.0,330800.0,479828.0,502725.0,563474.0,722343.0,636492.0,740398.0,459701.0,The Access Group,"TRAFALGAR HOUSE, 47-49 KING STREET, DUDLEY, DY2 8PS",52.508421,-2.084498
BLACKPOOL TEACHING HOSPITALS NHS FOUNDATION TRUST (RXL),Acute,"£3,440,960",£10.88,42271.0,3398689.0,1429847.0,1581346.0,1815496.0,1935659.0,2055872.0,3052339.0,3440960.0,No EPR -  in process of getting one,"VICTORIA HOSPITAL, WHINNEY HEYS ROAD, BLACKPOOL, FY3 8NR",53.82066,-3.016279
BOLTON NHS FOUNDATION TRUST (RMC),Acute,"£2,506,596",£5.63,210972.0,2295624.0,243377.0,2164342.0,2131180.0,2029245.0,2194914.0,2364619.0,2506596.0,Altera Digital Health,"THE ROYAL BOLTON HOSPITAL, MINERVA ROAD, FARNWORTH, BOLTON, BL4 0JR",53.553957,-2.429894
BRADFORD DISTRICT CARE NHS FOUNDATION TRUST (TAD),Mental Health and Community (Combined),"£155,636",-,74209.0,81427.0,133000.0,133000.0,224308.0,206240.0,142230.0,158331.0,155636.0,TPP,"NEW MILL, VICTORIA ROAD, SALTAIRE, SHIPLEY, BD18 3LD",53.839675,-1.788605
BRADFORD TEACHING HOSPITALS NHS FOUNDATION TRUST (RAE),Acute,"£341,703",£0.82,245543.0,96160.0,1193557.0,1048468.0,743710.0,640709.0,825612.0,607326.0,341703.0,Oracle Cerner Corporation,"BRADFORD ROYAL INFIRMARY, DUCKWORTH LANE, BRADFORD, BD9 6RJ",53.80598,-1.794697
BRIDGEWATER COMMUNITY HEALTHCARE NHS FOUNDATION TRUST (RY2),Community,"£63,360",-,63360.0,0.0,136873.0,91832.0,96032.0,145585.0,116636.0,91990.0,63360.0,TPP,"89 DEWHURST ROAD, BIRCHWOOD, WARRINGTON, WA3 7PG",53.4141,-2.527537
BUCKINGHAMSHIRE HEALTHCARE NHS TRUST (RXQ),Acute,£0,£0.00,0.0,0.0,1495869.0,1327077.0,1038961.0,1252856.0,1312183.0,0.0,0.0,System C Healthcare Ltd,"AMERSHAM HOSPITAL, WHIELDEN STREET, AMERSHAM, HP7 0JD",51.663002,-0.62143
CALDERDALE AND HUDDERSFIELD NHS FOUNDATION TRUST (RWY),Acute,"£409,184",£0.91,14645.0,394539.0,155000.0,34397.0,681606.0,435500.0,363966.0,389412.0,409184.0,Oracle Cerner Corporation,"TRUST HEADQUARTERS, ACRE STREET, LINDLEY, HUDDERSFIELD, HD3 3EA",53.655474,-1.816338
CAMBRIDGE UNIVERSITY HOSPITALS NHS FOUNDATION TRUST (RGT),Acute,"£193,394",£0.42,24400.0,168994.0,129740.0,127236.0,150167.0,127689.0,128146.0,158166.0,193394.0,Epic Systems Corporation,"CAMBRIDGE BIOMEDICAL CAMPUS, HILLS ROAD, CAMBRIDGE, CB2 0QQ",52.17374,0.139114
CAMBRIDGESHIRE AND PETERBOROUGH NHS FOUNDATION TRUST (RT1),Mental Health and Community (Combined),"£128,132",-,109722.0,18410.0,37699.0,56502.0,52516.0,71780.0,99853.0,100990.0,128132.0,TPP,"ELIZABETH HOUSE,, FULBOURN HOSPITAL, FULBOURN, CAMBRIDGE, CB21 5EF",52.184492,0.188301
CAMBRIDGESHIRE COMMUNITY SERVICES NHS TRUST (RYV),Community,"£157,009",-,140990.0,16019.0,41689.0,62476.0,111892.0,112982.0,106280.0,131884.0,157009.0,TPP,"UNIT 7-8, MEADOW PARK, MEADOW LANE, ST. IVES, PE27 4LG",52.322848,-0.067151
CAMDEN AND ISLINGTON NHS FOUNDATION TRUST (TAF),Mental Health and Community (Combined),"£95,045",-,59413.0,35632.0,82460.0,83620.0,86895.0,87213.0,89248.0,93463.0,95045.0,The Access Group,"ST PANCRAS HOSPITAL, 4 ST PANCRAS WAY, LONDON, NW1 0PE",51.53665,-0.131658
CENTRAL AND NORTH WEST LONDON NHS FOUNDATION TRUST (RV3),Mental Health and Community (Combined),"£143,706",-,143706.0,0.0,104659.0,103974.0,153309.0,150619.0,119272.0,138464.0,143706.0,TPP,"TRUST HEADQUARTERS, 350 EUSTON ROAD, REGENTS PLACE, LONDON, NW1 3AX",51.524336,-0.14218
CENTRAL LONDON COMMUNITY HEALTHCARE NHS TRUST (RYX),Mental Health and Community (Combined),"£281,257",-,21457.0,259800.0,284848.0,268250.0,253354.0,261865.0,278267.0,284750.0,281257.0,TPP,"GROUND FLOOR, 15 MARYLEBONE ROAD, LONDON, NW1 5JD",51.522838,-0.151539
CHELSEA AND WESTMINSTER HOSPITAL NHS FOUNDATION TRUST (RQM),Acute,"£1,684,157",£3.14,582305.0,1101852.0,2797337.0,3441279.0,2172539.0,1748139.0,2035952.0,1709927.0,1684157.0,Oracle Cerner Corporation,"CHELSEA & WESTMINSTER HOSPITAL, 369 FULHAM ROAD, LONDON, SW10 9NH",51.484308,-0.181644
CHESHIRE AND WIRRAL PARTNERSHIP NHS FOUNDATION TRUST (RXA),Mental Health and Community (Combined),"£133,968",-,133968.0,0.0,147889.0,163000.0,145321.0,86148.0,86148.0,113613.0,133968.0,TPP,"TRUST HEADQUARTERS REDESMERE, THE COUNTESS OF CHESTER HEALTH PARK, LIVERPOOL ROAD, CHESTER, CH2 1BQ",53.211544,-2.898825
CHESTERFIELD ROYAL HOSPITAL NHS FOUNDATION TRUST (RFS),Acute,"£1,467,070",£4.94,63055.0,1404015.0,936108.0,1095973.0,1156347.0,1145088.0,1223438.0,1289006.0,1467070.0,System C Healthcare Ltd,"CHESTERFIELD ROAD, CALOW, CHESTERFIELD, S44 5BL",53.236214,-1.400051
CORNWALL PARTNERSHIP NHS FOUNDATION TRUST (RJ8),Mental Health,"£203,106",-,165174.0,37932.0,98060.0,120265.0,136257.0,145210.0,173856.0,162871.0,203106.0,The Access Group,"CAREW HOUSE, BEACON TECHNOLOGY PARK, DUNMERE ROAD, BODMIN, PL31 2QN",50.471764,-4.740818
COUNTESS OF CHESTER HOSPITAL NHS FOUNDATION TRUST (RJR),Acute,"£246,994",£1.14,77241.0,169753.0,125872.0,126275.0,183454.0,226919.0,228796.0,223300.0,246994.0,Oracle Cerner Corporation,"COUNTESS OF CHESTER HEALTH PARK, LIVERPOOL ROAD, CHESTER, CH2 1UL",53.2088,-2.897884
COUNTY DURHAM AND DARLINGTON NHS FOUNDATION TRUST (RXP),Acute,"£489,843",£0.90,489843.0,0.0,506212.0,470989.0,443674.0,409303.0,429165.0,464261.0,489843.0,Oracle Cerner Corporation,"DARLINGTON MEMORIAL HOSPITAL, HOLLYHURST ROAD, DARLINGTON, DL3 6HX",54.530374,-1.563733
COVENTRY AND WARWICKSHIRE PARTNERSHIP NHS TRUST (RYG),Mental Health and Community (Combined),"£156,500",-,156500.0,0.0,120322.0,122836.0,144000.0,158300.0,154040.0,162000.0,156500.0,Advanced Health and Care Limited,"WAYSIDE HOUSE, WILSONS LANE, COVENTRY, CV6 6NY",52.456591,-1.486915
CROYDON HEALTH SERVICES NHS TRUST (RJ6),Acute,"£684,246",£1.76,216347.0,467899.0,934135.0,945248.0,868382.0,868382.0,948084.0,948084.0,684246.0,Oracle Cerner Corporation,"CROYDON UNIVERSITY HOSPITAL, 530 LONDON ROAD, THORNTON HEATH, CR7 7YE",51.389129,-0.108783
"CUMBRIA, NORTHUMBERLAND, TYNE AND WEAR NHS FOUNDATION TRUST (RX4)",Mental Health,"£185,963",-,118939.0,67024.0,111611.0,101921.0,135808.0,204616.0,150454.0,200855.0,185963.0,The Access Group,"ST NICHOLAS HOSPITAL, JUBILEE ROAD, GOSFORTH, NEWCASTLE UPON TYNE, NE3 3XT",55.006488,-1.6331
DARTFORD AND GRAVESHAM NHS TRUST (RN7),Acute,"£1,726,639",£5.28,168588.0,1558051.0,1627369.0,1743631.0,1298431.0,1380747.0,1379581.0,1622398.0,1726639.0,Alcidion,"DARENT VALLEY HOSPITAL, DARENTH WOOD ROAD, DARTFORD, DA2 8DA",51.434952,0.258645
DERBYSHIRE COMMUNITY HEALTH SERVICES NHS FOUNDATION TRUST (RY8),Community,"£845,096",-,94668.0,750428.0,155309.0,173127.0,872428.0,859957.0,842908.0,845096.0,845096.0,TPP,"TRUST HQ, ASH GREEN DISABILITY CTR, ASHGATE ROAD, ASHGATE, CHESTERFIELD, S42 7JE",53.23967,-1.479477
DERBYSHIRE HEALTHCARE NHS FOUNDATION TRUST (RXM),Mental Health,"£83,343",-,83343.0,0.0,57579.0,63037.0,61809.0,61800.0,88523.0,83343.0,83343.0,TPP,"TRUST HEADQUARTERS, KINGSWAY HOSPITAL, KINGSWAY, DERBY, DE22 3LZ",52.918052,-1.512355
DEVON PARTNERSHIP NHS TRUST (RWV),Mental Health,"£74,393",-,74393.0,0.0,53851.0,53340.0,52719.0,53925.0,67101.0,61724.0,74393.0,TPP,"WONFORD HOUSE HOSPITAL, DRYDEN ROAD, EXETER, EX2 5AF",50.715395,-3.506298
DONCASTER AND BASSETLAW TEACHING HOSPITALS NHS FOUNDATION TRUST (RP5),Acute,"£2,755,618",£6.39,57883.0,2697735.0,2341008.0,2070347.0,2357219.0,2322847.0,2509824.0,2372799.0,2755618.0,No EPR -  in process of getting one,"DONCASTER ROYAL INFIRMARY, ARMTHORPE ROAD, DONCASTER, DN2 5LT",53.530784,-1.108939
DORSET COUNTY HOSPITAL NHS FOUNDATION TRUST (RBD),Acute,"£882,399",£4.27,72134.0,810265.0,47722.0,678231.0,641811.0,705709.0,664934.0,786902.0,882399.0,Fortrus Ltd,"DORSET COUNTY HOSPITAL, WILLIAMS AVENUE, DORCHESTER, DT1 2JY",50.71294,-2.446936
DORSET HEALTHCARE UNIVERSITY NHS FOUNDATION TRUST (RDY),Mental Health and Community (Combined),"£381,388",-,381388.0,0.0,186984.0,327899.0,323614.0,118851.0,317034.0,89619.0,381388.0,The Access Group,"SENTINEL HOUSE, 4-6 NUFFIELD ROAD, NUFFIELD INDUSTRIAL ESTATE, POOLE, BH17 0RB",50.740073,-1.978038
EAST AND NORTH HERTFORDSHIRE NHS TRUST (RWH),Acute,"£3,640,306",£8.26,259420.0,3380886.0,798679.0,982782.0,2905125.0,3053706.0,3388425.0,3622201.0,3640306.0,Dedalus Healthcare Ltd,"LISTER HOSPITAL, COREYS MILL LANE, STEVENAGE, SG1 4AB",51.92461,-0.212726
EAST CHESHIRE NHS TRUST (RJN),Acute,"£756,094",£4.62,23177.0,732917.0,592000.0,606729.0,659152.0,682148.0,739057.0,756094.0,756094.0,No EPR -  in process of getting one,"MACCLESFIELD DISTRICT HOSPITAL, VICTORIA ROAD, MACCLESFIELD, SK10 3BL",53.262321,-2.141074
EAST KENT HOSPITALS UNIVERSITY NHS FOUNDATION TRUST (RVV),Acute,"£3,857,212",£5.46,757170.0,3100042.0,2355010.0,2933045.0,3285159.0,3512325.0,4403131.0,3786629.0,3857212.0,Altera Digital Health,"KENT & CANTERBURY HOSPITAL, ETHELBERT ROAD, CANTERBURY, CT1 3NG",51.266588,1.087083
EAST LANCASHIRE HOSPITALS NHS TRUST (RXR),Acute,"£2,704,202",£5.23,543780.0,2160422.0,2338428.0,2421815.0,2363188.0,2660877.0,2433694.0,2702870.0,2704202.0,Oracle Cerner Corporation,"ROYAL BLACKBURN HOSPITAL, HASLINGDEN ROAD, BLACKBURN, BB2 3HH",53.73556,-2.462716
EAST LONDON NHS FOUNDATION TRUST (RWK),Mental Health and Community (Combined),"£98,676",-,98676.0,0.0,98588.0,63792.0,59945.0,62398.0,92561.0,126805.0,98676.0,The Access Group,"ROBERT DOLAN HOUSE, 9 ALIE STREET, LONDON, E1 8DE",51.513372,-0.071892
EAST MIDLANDS AMBULANCE SERVICE NHS TRUST (RX9),Ambulance,£0,-,0.0,0.0,0.0,0.0,0.0,0.0,0.0,0.0,0.0,Medusa Medical Technologies Inc,"1 HORIZON PLACE, MELLORS WAY, NOTTINGHAM BUSINESS PARK, NOTTINGHAM, NG8 6PY",52.98146,-1.238124
EAST OF ENGLAND AMBULANCE SERVICE NHS TRUST (RYC),Ambulance,£0,-,0.0,0.0,0.0,0.0,0.0,0.0,0.0,0.0,0.0,Medusa Medical Technologies Inc,"UNIT 3, WHITING WAY, MELBOURN, ROYSTON, SG8 6NA",52.07658,0.014173
EAST SUFFOLK AND NORTH ESSEX NHS FOUNDATION TRUST (RDE),Acute,"£1,618,134",£2.12,92495.0,1525639.0,131933.0,2372659.0,2164686.0,2121272.0,2027845.0,1907600.0,1618134.0,System C Healthcare Ltd,"COLCHESTER DIST GENERAL HOSPITAL, TURNER ROAD, COLCHESTER, CO4 5JL",51.910164,0.899182
EAST SUSSEX HEALTHCARE NHS TRUST (RXC),Acute,"£2,223,791",£5.70,951526.0,1272265.0,2645859.0,2120174.0,2758516.0,2683197.0,2850107.0,2426287.0,2223791.0,Generic or In House EPR Provider,"ST ANNES HOUSE, 729 THE RIDGE, ST. LEONARDS-ON-SEA, TN37 7PT",50.887694,0.561949
EPSOM AND ST HELIER UNIVERSITY HOSPITALS NHS TRUST (RVR),Acute,"£2,046,099",£4.76,268484.0,1777615.0,2080527.0,2270285.0,2444034.0,2263529.0,2186131.0,2130741.0,2046099.0,Oracle Cerner Corporation,"ST HELIER HOSPITAL, WRYTHE LANE, CARSHALTON, SM5 1AA",51.380189,-0.183733
ESSEX PARTNERSHIP UNIVERSITY NHS FOUNDATION TRUST (R1L),Mental Health and Community (Combined),"£392,617",-,375577.0,17040.0,1385272.0,679080.0,687452.0,212565.0,186955.0,224565.0,392617.0,TPP,"THE LODGE, LODGE APPROACH, RUNWELL, WICKFORD, SS11 7XX",51.633008,0.543348
FRIMLEY HEALTH NHS FOUNDATION TRUST (RDU),Acute,"£362,413",£0.44,151216.0,211197.0,3705747.0,3355591.0,2516832.0,2161215.0,2255956.0,951167.0,362413.0,Epic Systems Corporation,"PORTSMOUTH ROAD, FRIMLEY, CAMBERLEY, GU16 7UJ",51.319666,-0.742029
GATESHEAD HEALTH NHS FOUNDATION TRUST (RR7),Acute,"£773,320",£3.72,38234.0,735086.0,343227.0,406783.0,443424.0,520323.0,613605.0,632863.0,773320.0,System C Healthcare Ltd,"QUEEN ELIZABETH HOSPITAL, SHERIFF HILL, GATESHEAD, NE9 6SX",54.93938,-1.580781
GEORGE ELIOT HOSPITAL NHS TRUST (RLT),Acute,"£1,502,104",£8.46,1502104.0,0.0,1317019.0,1537290.0,1564673.0,1401160.0,1369809.0,1306609.0,1502104.0,Dedalus Healthcare Ltd,"LEWES HOUSE, COLLEGE STREET, NUNEATON, CV10 7DJ",52.51258,-1.478439
GLOUCESTERSHIRE HEALTH AND CARE NHS FOUNDATION TRUST (RTQ),Mental Health and Community (Combined),"£612,164",-,64799.0,547365.0,34648.0,39826.0,730671.0,227138.0,632233.0,588488.0,612164.0,TPP,"EDWARD JENNER COURT, 1010 PIONEER AVENUE, GLOUCESTER BUSINESS PARK, GLOUCESTER, GL3 4AW",51.844168,-2.177452
GLOUCESTERSHIRE HOSPITALS NHS FOUNDATION TRUST (RTE),Acute,"£1,307,361",£2.04,218528.0,1088833.0,888529.0,868478.0,1046374.0,1121756.0,1200941.0,1300618.0,1307361.0,Altera Digital Health,"CHELTENHAM GENERAL HOSPITAL, SANDFORD ROAD, CHELTENHAM, GL53 7AN",51.89212,-2.071883
GREAT ORMOND STREET HOSPITAL FOR CHILDREN NHS FOUNDATION TRUST (RP4),Acute,"£1,100,992",-,0.0,1100992.0,38543.0,1206643.0,771712.0,593461.0,600695.0,1106804.0,1100992.0,Epic Systems Corporation,"GREAT ORMOND STREET, LONDON, WC1N 3JH",51.52221,-0.119924
GREAT WESTERN HOSPITALS NHS FOUNDATION TRUST (RN3),Acute,"£973,000",£2.47,311000.0,662000.0,1350804.0,1169960.0,1131046.0,1140072.0,958270.0,958270.0,973000.0,System C Healthcare Ltd,"GREAT WESTERN HOSPITAL, MARLBOROUGH ROAD, SWINDON, SN3 6BB",51.538528,-1.7272
GREATER MANCHESTER MENTAL HEALTH NHS FOUNDATION TRUST (RXV),Mental Health,"£160,649",-,160649.0,0.0,174632.0,174677.0,174677.0,174677.0,180081.0,131985.0,160649.0,Civica UK Limited,"PRESTWICH HOSPITAL, BURY NEW ROAD, PRESTWICH, MANCHESTER, M25 3BL",53.536749,-2.291465
GUY'S AND ST THOMAS' NHS FOUNDATION TRUST (RJ1),Acute,"£2,743,746",£6.82,403197.0,2340549.0,2283598.0,2317638.0,2478114.0,2207446.0,2373934.0,1873645.0,2743746.0,Epic Systems Corporation,"ST THOMAS' HOSPITAL, WESTMINSTER BRIDGE ROAD, LONDON, SE1 7EH",51.497958,-0.118905
HAMPSHIRE HOSPITALS NHS FOUNDATION TRUST (RN5),Acute,"£2,820,080",£5.61,816063.0,2004017.0,2177481.0,2043312.0,2198903.0,2214215.0,2410238.0,3326250.0,2820080.0,Generic or In House EPR Provider,"BASINGSTOKE AND NORTH HAMPSHIRE HOS, ALDERMASTON ROAD, BASINGSTOKE, RG24 9NA",51.280633,-1.109918
HARROGATE AND DISTRICT NHS FOUNDATION TRUST (RCD),Acute,"£450,582",£2.37,192892.0,257690.0,1669180.0,385373.0,426573.0,455750.0,409529.0,460772.0,450582.0,Generic or In House EPR Provider,"HARROGATE DISTRICT HOSPITAL, LANCASTER PARK ROAD, HARROGATE, HG2 7SX",53.993807,-1.517573
HEREFORDSHIRE AND WORCESTERSHIRE HEALTH AND CARE NHS TRUST (R1A),Mental Health and Community (Combined),"£310,865",-,123636.0,187229.0,262875.0,287692.0,313584.0,341807.0,358897.0,376837.0,310865.0,Advanced Health and Care Limited,"UNIT 2 KINGS COURT, CHARLES HASTINGS WAY, WORCESTER, WR5 1JR",52.192339,-2.178135
HERTFORDSHIRE COMMUNITY NHS TRUST (RY4),Community,"£41,000",-,41000.0,0.0,31925.0,54550.0,20748.0,20645.0,20645.0,41943.0,41000.0,TPP,"UNIT 1A HOWARD COURT, 14 TEWIN ROAD, WELWYN GARDEN CITY, AL7 1BW",51.802225,-0.194146
HERTFORDSHIRE PARTNERSHIP UNIVERSITY NHS FOUNDATION TRUST (RWR),Mental Health,£0,-,0.0,0.0,39679.0,51000.0,0.0,0.0,70260.0,70260.0,0.0,Civica UK Limited,"THE COLONNADES, BEACONSFIELD CLOSE, HATFIELD, AL10 8YE",51.766979,-0.216713
HOMERTON HEALTHCARE NHS FOUNDATION TRUST (RQX),Acute,"£401,099",£1.35,401099.0,0.0,137345.0,210610.0,181222.0,295583.0,295583.0,344932.0,401099.0,Oracle Cerner Corporation,"HOMERTON ROW, LONDON, E9 6SR",51.550634,-0.046099
HOUNSLOW AND RICHMOND COMMUNITY HEALTHCARE NHS TRUST (RY9),Community,"£68,866",-,21370.0,47496.0,54918.0,56998.0,62309.0,63223.0,40198.0,66547.0,68866.0,TPP,"THAMES HOUSE, 180-194 HIGH STREET, TEDDINGTON, TW11 8HU",51.427449,-0.326599
HULL UNIVERSITY TEACHING HOSPITALS NHS TRUST (RWA),Acute,"£1,893,133",£3.87,141463.0,1751670.0,2060303.0,2084806.0,2148221.0,2258192.0,2739104.0,1899453.0,1893133.0,Dedalus Healthcare Ltd,"HULL ROYAL INFIRMARY, ANLABY ROAD, HULL, HU3 2JZ",53.744113,-0.358146
HUMBER TEACHING NHS FOUNDATION TRUST (RV9),Mental Health and Community (Combined),"£235,687",-,110658.0,125029.0,169894.0,204344.0,201873.0,210737.0,210737.0,230129.0,235687.0,Dedalus Healthcare Ltd,"TRUST HQ, BLOCK A, WILLERBY HILL, BEVERLEY ROAD, WILLERBY, HULL, HU10 6FE",53.771046,-0.447304
IMPERIAL COLLEGE HEALTHCARE NHS TRUST (RYJ),Acute,"£1,670,639",£2.74,745205.0,925434.0,3881000.0,3359000.0,2999262.0,2948258.0,2678606.0,2506639.0,1670639.0,Oracle Cerner Corporation,"THE BAYS, ST MARYS HOSPITAL, SOUTH WHARF ROAD, LONDON, W2 1BL",51.51754,-0.174411
ISLE OF WIGHT NHS TRUST (R1F),Acute,"£1,522,323",£10.70,1398640.0,123683.0,832889.0,884334.0,954718.0,344911.0,340141.0,351197.0,1522323.0,CGI UK Ltd,"ST MARYS HOSPITAL, PARKHURST ROAD, NEWPORT, PO30 5TG",50.710843,-1.301372
JAMES PAGET UNIVERSITY HOSPITALS NHS FOUNDATION TRUST (RGP),Acute,"£1,147,056",£5.13,0.0,1147056.0,918314.0,913642.0,1008965.0,999244.0,1011093.0,1184534.0,1147056.0,No EPR -  in process of getting one,"LOWESTOFT ROAD, GORLESTON, GREAT YARMOUTH, NR31 6LA",52.561671,1.71798
KENT AND MEDWAY NHS AND SOCIAL CARE PARTNERSHIP TRUST (RXY),Mental Health and Community (Combined),"£266,917",-,137071.0,129846.0,124000.0,957114.0,772629.0,724015.0,222807.0,256683.0,266917.0,The Access Group,"FARM VILLA, HERMITAGE LANE, MAIDSTONE, ME16 9PH",51.273211,0.485699
KENT COMMUNITY HEALTH NHS FOUNDATION TRUST (RYY),Community,"£85,212",-,85212.0,0.0,553269.0,151261.0,287779.0,260039.0,89364.0,79826.0,85212.0,The Access Group,"TRINITY HOUSE, 110-120 EUREKA PARK, EUREKA BUSINESS PARK, ASHFORD, TN25 4AZ",51.171892,0.870712
KETTERING GENERAL HOSPITAL NHS FOUNDATION TRUST (RNQ),Acute,"£935,807",£2.75,537.0,935270.0,1107182.0,1380713.0,1560510.0,1517103.0,1537190.0,1114149.0,935807.0,System C Healthcare Ltd,"ROTHWELL ROAD, KETTERING, NN16 8UZ",52.402783,-0.741293
KING'S COLLEGE HOSPITAL NHS FOUNDATION TRUST (RJZ),Acute,"£4,591,272",£7.21,1662168.0,2929104.0,2876326.0,5282121.0,4421326.0,4729460.0,5065958.0,4667551.0,4591272.0,Epic Systems Corporation,"DENMARK HILL, LONDON, SE5 9RS",51.468077,-0.093916
KINGSTON HOSPITAL NHS FOUNDATION TRUST (RAX),Acute,"£2,623,143",£6.11,206922.0,2416221.0,1817909.0,2002820.0,2154588.0,2068248.0,2252061.0,3057268.0,2623143.0,Oracle Cerner Corporation,"GALSWORTHY ROAD, KINGSTON UPON THAMES, KT2 7QB",51.414826,-0.282624
LANCASHIRE & SOUTH CUMBRIA NHS FOUNDATION TRUST (RW5),Mental Health and Community (Combined),"£698,562",-,0.0,698562.0,777466.0,796000.0,706318.0,725070.0,736521.0,684000.0,698562.0,The Access Group,"SCEPTRE POINT, SCEPTRE WAY, BAMBER BRIDGE, PRESTON, PR5 6AW",53.719415,-2.638943
LANCASHIRE TEACHING HOSPITALS NHS FOUNDATION TRUST (RXN),Acute,"£2,320,106",£6.01,22806.0,2297300.0,595438.0,657417.0,623397.0,625516.0,1189206.0,2117216.0,2320106.0,QuadraMed,"ROYAL PRESTON HOSPITAL, SHAROE GREEN LANE, FULWOOD, PRESTON, PR2 9HT",53.791506,-2.706844
LEEDS AND YORK PARTNERSHIP NHS FOUNDATION TRUST (RGD),Mental Health,"£480,344",-,100064.0,380280.0,456078.0,452007.0,425480.0,366334.0,396411.0,436069.0,480344.0,Advanced Health and Care Limited,"ST. MARYS HOUSE, ST. MARYS ROAD, LEEDS, LS7 3JX",53.821038,-1.534962
LEEDS COMMUNITY HEALTHCARE NHS TRUST (RY6),Community,"£101,542",-,0.0,101542.0,432111.0,96288.0,89628.0,95306.0,99159.0,124773.0,101542.0,TPP,"3 WHITE ROSE OFFICE PARK, MILLSHAW PARK LANE, LEEDS, LS11 0DL",53.762731,-1.575638
LEEDS TEACHING HOSPITALS NHS TRUST (RR8),Acute,"£2,426,710",£3.21,302315.0,2124395.0,2121356.0,2993000.0,2748697.0,2357562.0,2402494.0,2517427.0,2426710.0,Generic or In House EPR Provider,"ST. JAMES'S UNIVERSITY HOSPITAL, BECKETT STREET, LEEDS, LS9 7TF",53.806869,-1.520359
LEICESTERSHIRE PARTNERSHIP NHS TRUST (RT5),Mental Health and Community (Combined),"£390,000",-,390000.0,0.0,587311.0,360000.0,360000.0,360000.0,390000.0,390000.0,390000.0,TPP,"ROOM 100/110 PEN LLOYD BUILDING, COUNTY HALL, LEICESTER ROAD, LEICESTER, LE3 8RA",52.655711,-1.188005
LEWISHAM AND GREENWICH NHS TRUST (RJ2),Acute,"£2,299,167",£3.15,293000.0,2006167.0,3041789.0,2867268.0,3311315.0,2856362.0,2642987.0,2554903.0,2299167.0,Oracle Cerner Corporation,"UNIVERSITY HOSPITAL LEWISHAM, LEWISHAM HIGH STREET, LONDON, SE13 6LH",51.453022,-0.017942
LINCOLNSHIRE COMMUNITY HEALTH SERVICES NHS TRUST (RY5),Community,"£13,163",-,13163.0,0.0,6623.0,31668.0,14627.0,28543.0,789.0,13000.0,13163.0,TPP,"BEECH HOUSE, WITHAM PARK, WATERSIDE SOUTH, LINCOLN, LN5 7JH",53.226467,-0.52415
LINCOLNSHIRE PARTNERSHIP NHS FOUNDATION TRUST (RP7),Mental Health,"£59,075",-,59075.0,0.0,155177.0,170840.0,120699.0,66346.0,49277.0,51502.0,59075.0,The Access Group,"ST GEORGE'S, LONG LEYS ROAD, LINCOLN, LN1 1FS",53.244029,-0.556905
LIVERPOOL HEART AND CHEST HOSPITAL NHS FOUNDATION TRUST (RBQ),Acute,"£47,344",-,47344.0,0.0,164000.0,366331.0,289291.0,272826.0,293830.0,242674.0,47344.0,Altera Digital Health,"THOMAS DRIVE, LIVERPOOL, L14 3PE",53.411151,-2.897989
LIVERPOOL UNIVERSITY HOSPITALS NHS FOUNDATION TRUST (REM),Acute,"£1,120,134",£1.59,1120134.0,0.0,134840.0,132545.0,137146.0,1536934.0,3293162.0,1679579.0,1120134.0,Dedalus Healthcare Ltd,"ROYAL LIVERPOOL UNIVERSITY HOSPITAL, PRESCOT STREET, LIVERPOOL, L7 8XP",53.409506,-2.964809
LIVERPOOL WOMEN'S NHS FOUNDATION TRUST (REP),Acute,"£1,131,000",-,619000.0,512000.0,655000.0,681200.0,715999.0,627000.0,676000.0,610000.0,1131000.0,Meditech Group Limited,"LIVERPOOL WOMENS HOSPITAL, CROWN STREET, LIVERPOOL, L8 7SS",53.398461,-2.960077
LONDON AMBULANCE SERVICE NHS TRUST (RRU),Ambulance,£0,-,0.0,0.0,0.0,0.0,0.0,0.0,0.0,0.0,0.0,Cleric Computer Services Ltd,"220 WATERLOO ROAD, LONDON, SE1 8SD",51.500174,-0.109031
LONDON NORTH WEST UNIVERSITY HEALTHCARE NHS TRUST (R1K),Acute,"£3,200,512",£4.59,795716.0,2404796.0,2693132.0,4435958.0,3772348.0,3361302.0,3930320.0,3855688.0,3200512.0,Oracle Cerner Corporation,"NORTHWICK PARK HOSPITAL, WATFORD ROAD, HARROW, HA1 3UJ",51.575407,-0.322037
MAIDSTONE AND TUNBRIDGE WELLS NHS TRUST (RWF),Acute,"£3,453,636",£6.17,1761785.0,1691851.0,2461578.0,2640898.0,2873509.0,2658411.0,3319913.0,3369757.0,3453636.0,Altera Digital Health,"THE MAIDSTONE HOSPITAL, HERMITAGE LANE, MAIDSTONE, ME16 9QQ",51.273662,0.483974
MANCHESTER UNIVERSITY NHS FOUNDATION TRUST (R0A),Acute,"£6,081,336",£4.27,524104.0,5557232.0,3815942.0,3016970.0,3562937.0,3743862.0,5313963.0,5925172.0,6081336.0,Epic Systems Corporation,"COBBETT HOUSE, OXFORD ROAD, MANCHESTER, M13 9WL",53.462436,-2.227711
MEDWAY NHS FOUNDATION TRUST (RPA),Acute,"£1,889,822",£4.79,1559782.0,330040.0,251986.0,1300285.0,1337365.0,1425441.0,1684603.0,1705271.0,1889822.0,Altera Digital Health,"MEDWAY MARITIME HOSPITAL, WINDMILL ROAD, GILLINGHAM, ME7 5NY",51.379862,0.542062
MERSEY AND WEST LANCASHIRE TEACHING HOSPITALS NHS TRUST (RBN),Acute,"£591,029",£1.67,61934.0,529095.0,691046.0,276467.0,334616.0,338684.0,349271.0,311245.0,591029.0,System C Healthcare Ltd,"WHISTON HOSPITAL, WARRINGTON ROAD, PRESCOT, L35 5DR",53.420469,-2.784954
MERSEY CARE NHS FOUNDATION TRUST (RW4),Mental Health and Community (Combined),"£319,913",-,197208.0,122705.0,112458.0,548592.0,1726077.0,857836.0,1877523.0,267904.0,319913.0,The Access Group,"V7 BUILDING, KINGS BUSINESS PARK, KINGS DRIVE, PRESCOT, L34 1PJ",53.4241,-2.826374
MID AND SOUTH ESSEX NHS FOUNDATION TRUST (RAJ),Acute,"£4,420,479",£3.77,419000.0,4001479.0,965328.0,1266045.0,894714.0,3670313.0,3561365.0,4078211.0,4420479.0,Dedalus Healthcare Ltd,"PRITTLEWELL CHASE, WESTCLIFF-ON-SEA, SS0 0RY",51.553837,0.688617
MID CHESHIRE HOSPITALS NHS FOUNDATION TRUST (RBT),Acute,"£1,156,049",£3.83,209547.0,946502.0,632013.0,811277.0,1266926.0,1022610.0,1123397.0,1132034.0,1156049.0,No EPR -  in process of getting one,"LEIGHTON HOSPITAL, LEIGHTON, CREWE, CW1 4QJ",53.117685,-2.475863
MID YORKSHIRE TEACHING NHS TRUST (RXF),Acute,"£222,941",£0.38,79414.0,143527.0,54014.0,54014.0,96952.0,128821.0,213280.0,178607.0,222941.0,Generic or In House EPR Provider,"PINDERFIELDS HOSPITAL, ABERFORD ROAD, WAKEFIELD, WF1 4DG",53.692418,-1.488555
MIDLANDS PARTNERSHIP NHS FOUNDATION TRUST (RRE),Mental Health and Community (Combined),"£94,077",-,94077.0,0.0,1479.0,89225.0,127011.0,120000.0,123396.0,100000.0,94077.0,The Access Group,"TRUST HEADQUARTERS, ST GEORGES HOSPITAL, CORPORATION STREET, STAFFORD, ST16 3SR",52.810634,-2.109266
MILTON KEYNES UNIVERSITY HOSPITAL NHS FOUNDATION TRUST (RD8),Acute,"£676,793",£2.18,8576.0,668217.0,779710.0,674400.0,710419.0,726474.0,738466.0,748605.0,676793.0,Oracle Cerner Corporation,"STANDING WAY, EAGLESTONE, MILTON KEYNES, MK6 5LD",52.026374,-0.735781
MOORFIELDS EYE HOSPITAL NHS FOUNDATION TRUST (RP6),Acute,"£2,603,864",-,1709346.0,894518.0,1939041.0,1926213.0,2752065.0,2100038.0,2657132.0,2479873.0,2603864.0,Generic or In House EPR Provider,"162 CITY ROAD, LONDON, EC1V 2PD",51.527246,-0.089889
NORFOLK AND NORWICH UNIVERSITY HOSPITALS NHS FOUNDATION TRUST (RM1),Acute,"£2,117,956",£3.58,0.0,2117956.0,1767475.0,2227372.0,2003230.0,2235793.0,2221794.0,2477300.0,2117956.0,No EPR -  in process of getting one,"COLNEY LANE, COLNEY, NORWICH, NR4 7UY",52.617543,1.221175
NORFOLK AND SUFFOLK NHS FOUNDATION TRUST (RMY),Mental Health,"£218,887",-,0.0,218887.0,301866.0,231801.0,228038.0,183976.0,171204.0,198610.0,218887.0,Dedalus Healthcare Ltd,"COUNTY HALL, MARTINEAU LANE, NORWICH, NR1 2DH",52.615176,1.307646
NORFOLK COMMUNITY HEALTH AND CARE NHS TRUST (RY3),Community,"£14,195",-,13698.0,497.0,157366.0,17354.0,22516.0,15837.0,19305.0,20239.0,14195.0,TPP,"NORWICH COMMUNITY HOSPITAL, BOWTHORPE ROAD, NORWICH, NR2 3TU",52.633922,1.262467
NORTH BRISTOL NHS TRUST (RVJ),Acute,"£1,265,919",£2.56,714936.0,550983.0,2028224.0,1855352.0,1313048.0,961446.0,851822.0,1265919.0,1265919.0,System C Healthcare Ltd,"SOUTHMEAD HOSPITAL, SOUTHMEAD ROAD, WESTBURY-ON-TRYM, BRISTOL, BS10 5NB",51.494807,-2.591014
NORTH CUMBRIA INTEGRATED CARE NHS FOUNDATION TRUST (RNN),Acute,"£2,271,518",£7.13,163424.0,2108094.0,120128.0,434921.0,2408302.0,2275055.0,2189688.0,2316095.0,2271518.0,No EPR -  in process of getting one,"PILLARS BUILDING, CUMBERLAND INFIRMARY, INFIRMARY STREET, CARLISLE, CA2 7HY",54.896498,-2.957792
NORTH EAST AMBULANCE SERVICE NHS FOUNDATION TRUST (RX6),Ambulance,£0,-,0.0,0.0,0.0,0.0,0.0,0.0,0.0,0.0,0.0,Cleric Computer Services Ltd,"BERNICIA HOUSE, THE WATERFRONT, GOLDCREST WAY, NEWCASTLE UPON TYNE, NE15 8NY",54.969714,-1.712365
NORTH EAST LONDON NHS FOUNDATION TRUST (RAT),Mental Health and Community (Combined),"£83,456",-,71288.0,12168.0,166392.0,117469.0,93218.0,94675.0,96361.0,92296.0,83456.0,The Access Group,"WEST WING, C E M E CENTRE, MARSH WAY, RAINHAM, RM13 8GQ",51.518577,0.171133
NORTH MIDDLESEX UNIVERSITY HOSPITAL NHS TRUST (RAP),Acute,"£1,994,593",£4.97,349097.0,1645496.0,1305747.0,1496573.0,1783790.0,1295797.0,1377147.0,2104490.0,1994593.0,System C Healthcare Ltd,"NORTH MIDDLESEX HOSPITAL, STERLING WAY, LONDON, N18 1QX",51.613094,-0.07375
NORTH STAFFORDSHIRE COMBINED HEALTHCARE NHS TRUST (RLY),Mental Health,"£77,210",-,0.0,77210.0,56225.0,58162.0,72384.0,72562.0,72805.0,73533.0,77210.0,Dedalus Healthcare Ltd,"LAWTON HOUSE, BELLRINGER ROAD, TRENTHAM, STOKE-ON-TRENT, ST4 8HH",52.969902,-2.167219
NORTH TEES AND HARTLEPOOL NHS FOUNDATION TRUST (RVW),Acute,"£529,070",£1.53,149507.0,379563.0,650580.0,759340.0,784840.0,846387.0,805636.0,844554.0,529070.0,InterSystems,"UNIVERSITY HOSPITAL OF HARTLEPOOL, HOLDFORTH ROAD, HARTLEPOOL, TS24 9AH",54.702398,-1.227837
NORTH WEST AMBULANCE SERVICE NHS TRUST (RX7),Ambulance,£0,-,0.0,0.0,0.0,0.0,0.0,0.0,0.0,0.0,0.0,Dedalus Healthcare Ltd,"LADYBRIDGE HALL, 399 CHORLEY NEW ROAD, BOLTON, BL1 5DD",53.579005,-2.475805
NORTH WEST ANGLIA NHS FOUNDATION TRUST (RGN),Acute,"£2,043,665",£3.55,759896.0,1283769.0,2154747.0,3297270.0,2067278.0,1823777.0,1956744.0,1811703.0,2043665.0,System C Healthcare Ltd,"PETERBOROUGH CITY HOSPITAL, BRETTON GATE, BRETTON, PETERBOROUGH, PE3 9GZ",52.583921,-0.279386
NORTHAMPTON GENERAL HOSPITAL NHS TRUST (RNS),Acute,"£1,464,799",£4.15,222452.0,1242347.0,1483206.0,1486032.0,1442713.0,1569224.0,1455538.0,1463752.0,1464799.0,No EPR -  in process of getting one,"CLIFTONVILLE, NORTHAMPTON, NN1 5BD",52.236054,-0.883844
NORTHAMPTONSHIRE HEALTHCARE NHS FOUNDATION TRUST (RP1),Mental Health and Community (Combined),"£1,205,781",-,156957.0,1048824.0,16612.0,8333.0,716760.0,89436.0,969202.0,1073333.0,1205781.0,TPP,"ST MARYS HOSPITAL, 77 LONDON ROAD, KETTERING, NN15 7PW",52.3941,-0.7222
NORTHERN CARE ALLIANCE NHS FOUNDATION TRUST (RM3),Acute,"£9,396,882",£39.31,2498492.0,6898390.0,193179.0,233237.0,233237.0,1723074.0,6618715.0,9396882.0,9396882.0,Altera Digital Health,"SALFORD ROYAL, STOTT LANE, SALFORD, M6 8HD",53.487545,-2.323424
NORTHERN LINCOLNSHIRE AND GOOLE NHS FOUNDATION TRUST (RJL),Acute,"£2,814,539",£6.48,232070.0,2582469.0,2256645.0,2392394.0,2669508.0,2818671.0,2626516.0,2714949.0,2814539.0,Dedalus Healthcare Ltd,"DIANA PRINCESS OF WALES HOSPITAL, SCARTHO ROAD, GRIMSBY, DN33 2BA",53.544858,-0.096289
NORTHUMBRIA HEALTHCARE NHS FOUNDATION TRUST (RTF),Acute,"£502,847",£1.05,22717.0,480130.0,281072.0,430537.0,435323.0,297340.0,272183.0,273804.0,502847.0,Generic or In House EPR Provider,"NORTH TYNESIDE GENERAL HOSPITAL, RAKE LANE, NORTH SHIELDS, NE29 8NH",55.025241,-1.46734
NOTTINGHAM UNIVERSITY HOSPITALS NHS TRUST (RX1),Acute,"£488,132",£0.63,488132.0,0.0,1107738.0,855141.0,790761.0,502266.0,405689.0,374227.0,488132.0,Nervecentre Software Ltd,"TRUST HEADQUARTERS, QUEENS MEDICAL CENTRE, DERBY ROAD, NOTTINGHAM, NG7 2UH",52.943799,-1.185957
NOTTINGHAMSHIRE HEALTHCARE NHS FOUNDATION TRUST (RHA),Mental Health and Community (Combined),"£357,626",-,311450.0,46176.0,341065.0,405464.0,318501.0,247120.0,309403.0,318650.0,357626.0,The Access Group,"THE RESOURCE, TRUST HQ, DUNCAN MACMILLAN HOUSE, PORCHESTER ROAD, NOTTINGHAM, NG3 6AA",52.979272,-1.12643
OXFORD HEALTH NHS FOUNDATION TRUST (RNU),Mental Health and Community (Combined),"£312,872",-,59750.0,253122.0,214317.0,211270.0,207457.0,211144.0,212159.0,47173.0,312872.0,The Access Group,"WARNEFORD HOSPITAL, WARNEFORD LANE, HEADINGTON, OXFORD, OX3 7JX",51.750841,-1.22232
OXFORD UNIVERSITY HOSPITALS NHS FOUNDATION TRUST (RTH),Acute,"£1,566,608",£2.30,622600.0,944008.0,1941087.0,2029293.0,2300000.0,1922600.0,1671795.0,1645814.0,1566608.0,Oracle Cerner Corporation,"JOHN RADCLIFFE HOSPITAL, HEADLEY WAY, HEADINGTON, OXFORD, OX3 9DU",51.763861,-1.219792
OXLEAS NHS FOUNDATION TRUST (RPG),Mental Health and Community (Combined),"£22,495",-,22495.0,0.0,0.0,0.0,0.0,0.0,26384.0,22278.0,22495.0,The Access Group,"PINEWOOD HOUSE, PINEWOOD PLACE, DARTFORD, DA2 7WG",51.434794,0.174741
PENNINE CARE NHS FOUNDATION TRUST (RT2),Mental Health and Community (Combined),"£343,879",-,170400.0,173479.0,65000.0,84817.0,351186.0,326950.0,304451.0,329437.0,343879.0,Civica UK Limited,"225 OLD STREET, ASHTON-UNDER-LYNE, OL6 7SR",53.485811,-2.099982
PORTSMOUTH HOSPITALS UNIVERSITY NATIONAL HEALTH SERVICE TRUST (RHU),Acute,"£1,344,699",£2.19,427311.0,917388.0,1504921.0,1535674.0,1453767.0,1392807.0,1276717.0,1351505.0,1344699.0,Generic or In House EPR Provider,"QUEEN ALEXANDRA HOSPITAL, SOUTHWICK HILL ROAD, COSHAM, PORTSMOUTH, PO6 3LY",50.850297,-1.069932
QUEEN VICTORIA HOSPITAL NHS FOUNDATION TRUST (RPC),Acute,"£732,887",-,159660.0,573227.0,439245.0,439245.0,439245.0,439245.0,458268.0,458268.0,732887.0,No EPR -  in process of getting one,"HOLTYE ROAD, EAST GRINSTEAD, RH19 3DZ",51.135073,-0.0029
ROTHERHAM DONCASTER AND SOUTH HUMBER NHS FOUNDATION TRUST (RXE),Mental Health,"£59,261",-,59261.0,0.0,100043.0,72470.0,64782.0,57997.0,47083.0,53976.0,59261.0,TPP,"WOODFIELD HOUSE, TICKHILL ROAD, DONCASTER, DN4 8QN",53.494803,-1.145976
ROYAL BERKSHIRE NHS FOUNDATION TRUST (RHW),Acute,"£663,856",£1.33,204006.0,459850.0,2702236.0,2532592.0,1310195.0,1043774.0,702211.0,875589.0,663856.0,Oracle Cerner Corporation,"ROYAL BERKSHIRE HOSPITAL, LONDON ROAD, READING, RG1 5AN",51.451022,-0.95933
ROYAL CORNWALL HOSPITALS NHS TRUST (REF),Acute,"£1,761,585",£3.90,291131.0,1470454.0,2117252.0,2189817.0,2254974.0,2360650.0,1995594.0,1956333.0,1761585.0,No EPR -  in process of getting one,"ROYAL CORNWALL HOSPITAL, TRELISKE, TRURO, TR1 3LJ",50.266686,-5.091464
ROYAL FREE LONDON NHS FOUNDATION TRUST (RAL),Acute,"£949,807",£1.24,269025.0,680782.0,831522.0,2322980.0,1263892.0,955464.0,887994.0,949807.0,949807.0,Oracle Cerner Corporation,"ROYAL FREE HOSPITAL, POND STREET, LONDON, NW3 2QG",51.553224,-0.165324
ROYAL NATIONAL ORTHOPAEDIC HOSPITAL NHS TRUST (RAN),Acute,"£329,878",-,72951.0,256927.0,446000.0,466523.0,465878.0,507005.0,634989.0,444939.0,329878.0,Generic or In House EPR Provider,"BROCKLEY HILL, STANMORE, HA7 4LP",51.632565,-0.310435
ROYAL PAPWORTH HOSPITAL NHS FOUNDATION TRUST (RGM),Acute,"£30,290",-,30290.0,0.0,646683.0,452597.0,44830.0,59955.0,46406.0,53278.0,30290.0,Dedalus Healthcare Ltd,"PAPWORTH ROAD, CAMBRIDGE BIOMEDICAL CAMPUS, CAMBRIDGE, CB2 0AY",52.173509,0.136017
ROYAL SURREY COUNTY HOSPITAL NHS FOUNDATION TRUST (RA2),Acute,"£1,491,125",£5.50,287125.0,1204000.0,902661.0,1122490.0,1350349.0,1504209.0,1501402.0,1539224.0,1491125.0,Oracle Cerner Corporation,"EGERTON ROAD, GUILDFORD, GU2 7XX",51.241016,-0.607463
ROYAL UNITED HOSPITALS BATH NHS FOUNDATION TRUST (RD1),Acute,"£1,002,241",£2.20,385470.0,616771.0,1067704.0,1007013.0,806536.0,823012.0,930793.0,843675.0,1002241.0,Oracle Cerner Corporation,"COMBE PARK, BATH, BA1 3NG",51.391665,-2.391218
Royal Devon University Healthcare NHS Foundation Trust (RH8),Acute,"£1,108,033",£1.84,23295.0,1084738.0,1338365.0,1696474.0,1732098.0,1528674.0,1457011.0,1121647.0,1108033.0,Epic Systems Corporation,"ROYAL DEVON UNIVERSITY NHS FT, BARRACK ROAD, EXETER, EX2 5DW",50.716703,-3.50668
SALISBURY NHS FOUNDATION TRUST (RNZ),Acute,"£1,540,918",£6.70,61603.0,1479315.0,418747.0,735502.0,723315.0,711381.0,824951.0,859304.0,1540918.0,Dedalus Healthcare Ltd,"SALISBURY DISTRICT HOSPITAL, ODSTOCK ROAD, SALISBURY, SP2 8BJ",51.043946,-1.789823
SANDWELL AND WEST BIRMINGHAM HOSPITALS NHS TRUST (RXK),Acute,"£763,454",£1.63,474050.0,289404.0,3507080.0,1609284.0,1178575.0,821437.0,712400.0,704975.0,763454.0,Oracle Cerner Corporation,"CITY HOSPITAL, DUDLEY ROAD, BIRMINGHAM, B18 7QH",52.488627,-1.932507
SHEFFIELD CHILDREN'S NHS FOUNDATION TRUST (RCU),Acute,"£767,948",-,4221.0,763727.0,55688000.0,631307.0,658616.0,518556.0,646757.0,644037.0,767948.0,System C Healthcare Ltd,"WESTERN BANK, SHEFFIELD, S10 2TH",53.380599,-1.490629
SHEFFIELD HEALTH & SOCIAL CARE NHS FOUNDATION TRUST (TAH),Mental Health and Community (Combined),£0,-,0.0,0.0,0.0,0.0,0.0,0.0,0.0,0.0,0.0,The Access Group,"CENTRE COURT, ATLAS WAY, SHEFFIELD, S4 7QQ",53.398185,-1.443226
SHEFFIELD TEACHING HOSPITALS NHS FOUNDATION TRUST (RHQ),Acute,"£4,210,874",£7.15,168454.0,4042420.0,5280929.0,3929246.0,3504010.0,3586358.0,3681389.0,3933631.0,4210874.0,Dedalus Healthcare Ltd,"NORTHERN GENERAL HOSPITAL, HERRIES ROAD, SHEFFIELD, S5 7AU",53.409804,-1.455966
SHERWOOD FOREST HOSPITALS NHS FOUNDATION TRUST (RK5),Acute,"£618,400",£1.64,60000.0,558400.0,1014000.0,444868.0,518563.0,563956.0,563956.0,563956.0,618400.0,No EPR -  in process of getting one,"KINGS MILL HOSPITAL, MANSFIELD ROAD, SUTTON-IN-ASHFIELD, NG17 4JL",53.134555,-1.233581
SHROPSHIRE COMMUNITY HEALTH NHS TRUST (R1D),Community,"£92,764",-,70135.0,22629.0,109267.0,126349.0,132455.0,159938.0,115606.0,111628.0,92764.0,The Access Group,"MOUNT MCKINLEY, ANCHORAGE AVENUE, SHREWSBURY BUSINESS PARK, SHREWSBURY, SY2 6FG",52.690583,-2.721092
SOLENT NHS TRUST (R1C),Mental Health and Community (Combined),"£93,654",-,62480.0,31174.0,124983.0,122788.0,128422.0,91189.0,103258.0,82697.0,93654.0,TPP,"SOLENT NHS TRUST HEADQUARTERS, HIGHPOINT VENUE, BURSLEDON ROAD, SOUTHAMPTON, SO19 8BR",50.901637,-1.329879
SOMERSET NHS FOUNDATION TRUST (RH5),Acute,"£1,598,190",£4.62,1598190.0,0.0,60798.0,59963.0,80835.0,79180.0,879134.0,836686.0,1598190.0,IMS Maxims Ltd,"TRUST MANAGEMENT, LYDEARD HOUSE, MUSGROVE PARK HOSPITAL, TAUNTON, TA1 5DA",51.011574,-3.121693
SOUTH CENTRAL AMBULANCE SERVICE NHS FOUNDATION TRUST (RYE),Ambulance,£0,-,0.0,0.0,0.0,0.0,0.0,0.0,0.0,0.0,0.0,Ortivus UK Ltd,"7-8 TALISMAN BUSINESS CENTRE, TALISMAN ROAD, BICESTER, OX26 6HR",51.891768,-1.1495
SOUTH EAST COAST AMBULANCE SERVICE NHS FOUNDATION TRUST (RYD),Ambulance,£0,-,0.0,0.0,0.0,0.0,0.0,0.0,0.0,0.0,0.0,Cleric Computer Services Ltd,"TRUST HEADQUARTERS, NEXUS HOUSE, 4 GATWICK ROAD, CRAWLEY, RH10 9BG",51.132746,-0.168974
SOUTH LONDON AND MAUDSLEY NHS FOUNDATION TRUST (RV5),Mental Health,£0,-,0.0,0.0,0.0,0.0,0.0,0.0,0.0,0.0,0.0,Advanced Health and Care Limited,"BETHLEM ROYAL HOSPITAL, MONKS ORCHARD ROAD, BECKENHAM, BR3 3BX",51.377782,-0.029256
SOUTH TEES HOSPITALS NHS FOUNDATION TRUST (RTR),Acute,"£2,591,143",£6.25,1760522.0,830621.0,1219317.0,1452180.0,1728982.0,1997634.0,2113451.0,2144025.0,2591143.0,Alcidion,"JAMES COOK UNIVERSITY HOSPITAL, MARTON ROAD, MIDDLESBROUGH, TS4 3BW",54.551755,-1.214805
SOUTH TYNESIDE AND SUNDERLAND NHS FOUNDATION TRUST (R0B),Acute,"£1,683,830",£3.64,528858.0,1154972.0,0.0,0.0,2009382.0,1615888.0,994550.0,960446.0,1683830.0,Meditech Group Limited,"SUNDERLAND ROYAL HOSPITAL, KAYLL ROAD, SUNDERLAND, SR4 7TP",54.902206,-1.410313
SOUTH WARWICKSHIRE UNIVERSITY NHS FOUNDATION TRUST (RJC),Acute,"£1,092,090",£4.11,130902.0,961188.0,547083.0,1027335.0,1116373.0,1069984.0,1069984.0,1069984.0,1092090.0,Dedalus Healthcare Ltd,"WARWICK HOSPITAL, LAKIN ROAD, WARWICK, CV34 5BW",52.28995,-1.583215
SOUTH WEST LONDON AND ST GEORGE'S MENTAL HEALTH NHS TRUST (RQY),Mental Health,£0,-,0.0,0.0,0.0,0.0,0.0,0.0,0.0,0.0,0.0,The Access Group,"SPRINGFIELD HOSPITAL, 61 GLENBURNIE ROAD, LONDON, SW17 7DJ",51.437358,-0.172373
SOUTH WEST YORKSHIRE PARTNERSHIP NHS FOUNDATION TRUST (RXG),Mental Health and Community (Combined),"£179,085",-,88315.0,90770.0,189120.0,174709.0,220783.0,181882.0,193031.0,182422.0,179085.0,TPP,"TRUST HEADQUARTERS, FIELDHEAD HOSPITAL, OUCHTHORPE LANE, WAKEFIELD, WF1 3SP",53.69734,-1.494054
SOUTH WESTERN AMBULANCE SERVICE NHS FOUNDATION TRUST (RYF),Ambulance,£0,-,0.0,0.0,0.0,0.0,0.0,0.0,0.0,0.0,0.0,Ortivus UK Ltd,"ABBEY COURT, EAGLE WAY, SOWTON INDUSTRIAL ESTATE, EXETER, EX2 7HY",50.720169,-3.464744
SOUTHERN HEALTH NHS FOUNDATION TRUST (RW1),Mental Health and Community (Combined),"£197,531",-,197531.0,0.0,214640.0,220007.0,153342.0,182304.0,200000.0,198493.0,197531.0,The Access Group,"TATCHBURY MOUNT HOSPITAL, CALMORE, SOUTHAMPTON, SO40 2RZ",50.9313,-1.530052
ST GEORGE'S UNIVERSITY HOSPITALS NHS FOUNDATION TRUST (RJ7),Acute,"£3,061,798",£6.82,1020703.0,2041095.0,886429.0,752000.0,515525.0,656152.0,614000.0,807364.0,3061798.0,Oracle Cerner Corporation,"ST GEORGE'S HOSPITAL, BLACKSHAW ROAD, TOOTING, LONDON, SW17 0QT",51.426682,-0.175719
STOCKPORT NHS FOUNDATION TRUST (RWJ),Acute,"£2,265,920",£6.83,18311.0,2247609.0,54558.0,427727.0,482304.0,1727340.0,1741114.0,1991944.0,2265920.0,No EPR -  in process of getting one,"STEPPING HILL HOSPITAL, POPLAR GROVE, STOCKPORT, SK2 7JE",53.383778,-2.13202
SURREY AND BORDERS PARTNERSHIP NHS FOUNDATION TRUST (RXX),Mental Health,"£60,000",-,60000.0,0.0,500000.0,520000.0,200000.0,100.0,100.0,60000.0,60000.0,TPP,"18 MOLE BUSINESS PARK, RANDALLS ROAD, LEATHERHEAD, KT22 7AD",51.297591,-0.335629
SURREY AND SUSSEX HEALTHCARE NHS TRUST (RTP),Acute,"£1,985,829",£4.30,401512.0,1584317.0,1869494.0,2111631.0,2150523.0,2144017.0,2468527.0,2663547.0,1985829.0,Oracle Cerner Corporation,"TRUST HEADQUARTERS, EAST SURREY HOSPITAL, CANADA AVENUE, REDHILL, RH1 5RH",51.219194,-0.162009
SUSSEX COMMUNITY NHS FOUNDATION TRUST (RDR),Community,"£375,844",-,66382.0,309462.0,395533.0,411357.0,403036.0,391453.0,389106.0,428887.0,375844.0,TPP,"BRIGHTON GENERAL HOSPITAL, ELM GROVE, BRIGHTON, BN2 3EW",50.831182,-0.114525
SUSSEX PARTNERSHIP NHS FOUNDATION TRUST (RX2),Mental Health,"£227,961",-,227961.0,0.0,336088.0,218464.0,208449.0,184135.0,219792.0,187386.0,227961.0,Advanced Health and Care Limited,"TRUST HQ, SWANDEAN, ARUNDEL ROAD, WORTHING, BN13 3EP",50.84121,-0.411162
TAMESIDE AND GLOSSOP INTEGRATED CARE NHS FOUNDATION TRUST (RMP),Acute,"£975,665",£3.95,111844.0,863821.0,186378.0,1092978.0,1129094.0,1011511.0,940769.0,927485.0,975665.0,Dedalus Healthcare Ltd,"TAMESIDE GENERAL HOSPITAL, FOUNTAIN STREET, ASHTON-UNDER-LYNE, OL6 9RW",53.49153,-2.071433
TAVISTOCK AND PORTMAN NHS FOUNDATION TRUST (RNK),Mental Health,"£31,000",-,10000.0,21000.0,40000.0,25300.0,25500.0,25500.0,21000.0,21000.0,31000.0,Advanced Health and Care Limited,"THE TAVISTOCK CENTRE, 120 BELSIZE LANE, LONDON, NW3 5BA",51.546898,-0.175443
"TEES, ESK AND WEAR VALLEYS NHS FOUNDATION TRUST (RX3)",Mental Health,"£414,418",-,233487.0,180931.0,309611.0,309611.0,309611.0,349000.0,349000.0,359061.0,414418.0,Civica UK Limited,"TRUST HEADQUARTERS, WEST PARK HOSPITAL, EDWARD PEASE WAY, DARLINGTON, DL2 2TS",54.543483,-1.591138
THE CHRISTIE NHS FOUNDATION TRUST (RBV),Acute,"£302,197",-,80589.0,221608.0,156867.0,218610.0,282298.0,225909.0,190975.0,183356.0,302197.0,Generic or In House EPR Provider,"550 WILMSLOW ROAD, WITHINGTON, MANCHESTER, M20 4BX",53.429767,-2.230125
THE CLATTERBRIDGE CANCER CENTRE NHS FOUNDATION TRUST (REN),Acute,"£73,968",-,45274.0,28694.0,58000.0,104977.0,82551.0,73878.0,82528.0,68704.0,73968.0,Meditech Group Limited,"CLATTERBRIDGE HOSPITAL, CLATTERBRIDGE ROAD, BEBINGTON, WIRRAL, CH63 4JY",53.332267,-3.025849
THE DUDLEY GROUP NHS FOUNDATION TRUST (RNA),Acute,"£1,656,858",£4.16,0.0,1656858.0,1679781.0,1700002.0,2548336.0,1847541.0,1661319.0,1719628.0,1656858.0,Altera Digital Health,"RUSSELLS HALL HOSPITAL, PENSNETT ROAD, DUDLEY, DY1 2HQ",52.501893,-2.11769
THE HILLINGDON HOSPITALS NHS FOUNDATION TRUST (RAS),Acute,"£1,085,276",£3.51,461956.0,623320.0,460210.0,1178947.0,1333238.0,1298313.0,1335389.0,1377584.0,1085276.0,Oracle Cerner Corporation,"PIELD HEATH ROAD, UXBRIDGE, UB8 3NN",51.526076,-0.461175
THE NEWCASTLE UPON TYNE HOSPITALS NHS FOUNDATION TRUST (RTD),Acute,"£1,798,114",£4.97,978739.0,819375.0,2096096.0,2317668.0,1844521.0,2417824.0,2403186.0,2676497.0,1798114.0,Oracle Cerner Corporation,"FREEMAN HOSPITAL, FREEMAN ROAD, HIGH HEATON, NEWCASTLE UPON TYNE, NE7 7DN",55.002776,-1.593378
THE PRINCESS ALEXANDRA HOSPITAL NHS TRUST (RQW),Acute,"£1,159,170",£3.53,58477.0,1100693.0,938114.0,1051918.0,1113255.0,1156571.0,1217303.0,1127157.0,1159170.0,Cambio Healthcare Systems Ltd,"HAMSTEL ROAD, HARLOW, CM20 1QX",51.771529,0.085457
"THE QUEEN ELIZABETH HOSPITAL, KING'S LYNN, NHS FOUNDATION TRUST (RCX)",Acute,"£743,174",£2.98,53358.0,689816.0,506993.0,514604.0,770260.0,791753.0,540286.0,714685.0,743174.0,No EPR -  in process of getting one,"QUEEN ELIZABETH HOSPITAL, GAYTON ROAD, KING'S LYNN, PE30 4ET",52.756608,0.446678
THE ROBERT JONES AND AGNES HUNT ORTHOPAEDIC HOSPITAL NHS FOUNDATION TRUST (RL1),Acute,"£249,046",-,26016.0,223030.0,266525.0,295026.0,274362.0,264433.0,272425.0,289032.0,249046.0,No EPR -  in process of getting one,"GOBOWEN, OSWESTRY, SY10 7AG",52.884212,-3.032685
THE ROTHERHAM NHS FOUNDATION TRUST (RFR),Acute,"£1,580,130",£5.96,91697.0,1488433.0,1098012.0,1319820.0,1477896.0,1645386.0,1672831.0,1694490.0,1580130.0,Meditech Group Limited,"MOORGATE ROAD, ROTHERHAM, S60 2UD",53.413972,-1.34288
THE ROYAL MARSDEN NHS FOUNDATION TRUST (RPY),Acute,"£303,000",-,105000.0,198000.0,284268.0,305212.0,328391.0,314852.0,294693.0,321231.0,303000.0,Epic Systems Corporation,"FULHAM ROAD, LONDON, SW3 6JJ",51.490561,-0.172565
THE ROYAL ORTHOPAEDIC HOSPITAL NHS FOUNDATION TRUST (RRJ),Acute,"£560,629",-,16126.0,544503.0,364457.0,417998.0,439100.0,456374.0,469768.0,575543.0,560629.0,No EPR -  in process of getting one,"THE WOODLANDS, BRISTOL ROAD SOUTH, NORTHFIELD, BIRMINGHAM, B31 2AP",52.420074,-1.961166
THE ROYAL WOLVERHAMPTON NHS TRUST (RL4),Acute,"£1,010,914",£2.35,60997.0,949917.0,444136.0,469666.0,518462.0,548649.0,804701.0,911075.0,1010914.0,No EPR -  in process of getting one,"NEW CROSS HOSPITAL, WOLVERHAMPTON ROAD, HEATH TOWN, WOLVERHAMPTON, WV10 0QP",52.599722,-2.095555
THE SHREWSBURY AND TELFORD HOSPITAL NHS TRUST (RXW),Acute,"£1,139,974",£2.34,243533.0,896441.0,351115.0,478800.0,553505.0,629325.0,641665.0,977588.0,1139974.0,System C Healthcare Ltd,"MYTTON OAK ROAD, SHREWSBURY, SY3 8XQ",52.709258,-2.793691
THE WALTON CENTRE NHS FOUNDATION TRUST (RET),Acute,"£118,528",-,45325.0,73203.0,106988.0,69940.0,127383.0,131096.0,83333.0,79179.0,118528.0,Generic or In House EPR Provider,"LOWER LANE, LIVERPOOL, L9 7LJ",53.466395,-2.931
TORBAY AND SOUTH DEVON NHS FOUNDATION TRUST (RA9),Acute,"£2,421,116",£8.72,49464.0,2371652.0,1195013.0,1242560.0,1731766.0,1775404.0,2016459.0,2204210.0,2421116.0,No EPR -  in process of getting one,"TORBAY HOSPITAL, NEWTON ROAD, TORQUAY, TQ2 7AA",50.482316,-3.553804
UNITED LINCOLNSHIRE HOSPITALS NHS TRUST (RWD),Acute,"£3,480,695",£5.77,539012.0,2941683.0,2980034.0,3112695.0,3097331.0,3206654.0,3277299.0,3456420.0,3480695.0,No EPR -  in process of getting one,"LINCOLN COUNTY HOSPITAL, GREETWELL ROAD, LINCOLN, LN2 5QY",53.233575,-0.519635
UNIVERSITY COLLEGE LONDON HOSPITALS NHS FOUNDATION TRUST (RRV),Acute,"£1,989,597",£7.34,604585.0,1385012.0,3849996.0,3899378.0,3075147.0,2652459.0,2469940.0,2642102.0,1989597.0,Epic Systems Corporation,"250 EUSTON ROAD, LONDON, NW1 2PG",51.525735,-0.137409
UNIVERSITY HOSPITAL SOUTHAMPTON NHS FOUNDATION TRUST (RHM),Acute,"£977,665",£2.09,185534.0,792131.0,1589458.0,1438245.0,1370371.0,994727.0,933328.0,911746.0,977665.0,Generic or In House EPR Provider,"SOUTHAMPTON GENERAL HOSPITAL, TREMONA ROAD, SOUTHAMPTON, SO16 6YD",50.933019,-1.435104
UNIVERSITY HOSPITALS BIRMINGHAM NHS FOUNDATION TRUST (RRK),Acute,"£4,081,450",£3.09,44737.0,4036713.0,1694633.0,3183624.0,5033656.0,5125979.0,5128160.0,3910422.0,4081450.0,Generic or In House EPR Provider,"QUEEN ELIZABETH HOSPITAL, MINDELSOHN WAY, EDGBASTON, BIRMINGHAM, B15 2GW",52.451819,-1.942569
UNIVERSITY HOSPITALS BRISTOL AND WESTON NHS FOUNDATION TRUST (RA7),Acute,"£3,433,734",£7.05,253013.0,3180721.0,445102.0,449725.0,452751.0,1134217.0,1130771.0,1239297.0,3433734.0,System C Healthcare Ltd,"TRUST HEADQUARTERS, MARLBOROUGH STREET, BRISTOL, BS1 3NU",51.459478,-2.593019
UNIVERSITY HOSPITALS COVENTRY AND WARWICKSHIRE NHS TRUST (RKB),Acute,"£1,582,431",£3.12,1582431.0,0.0,2400000.0,2500000.0,2397786.0,1611715.0,1671926.0,2702189.0,1582431.0,Oracle Cerner Corporation,"WALSGRAVE GENERAL HOSPITAL, CLIFFORD BRIDGE ROAD, COVENTRY, CV2 2DX",52.421211,-1.438403
UNIVERSITY HOSPITALS DORSET NHS FOUNDATION TRUST (R0D),Acute,"£1,545,171",£2.69,227047.0,1318124.0,0.0,0.0,0.0,2041186.0,1747262.0,1703847.0,1545171.0,Graphnet Health Ltd,"MANAGEMENT OFFICES, POOLE HOSPITAL, LONGFLEET ROAD, POOLE, BH15 2JB",50.721987,-1.973117
UNIVERSITY HOSPITALS OF DERBY AND BURTON NHS FOUNDATION TRUST (RTG),Acute,"£5,074,281",£6.02,4515960.0,558321.0,2832857.0,4674838.0,4828195.0,4876921.0,4725591.0,4758087.0,5074281.0,Dedalus Healthcare Ltd,"ROYAL DERBY HOSPITAL, UTTOXETER ROAD, DERBY, DE22 3NE",52.910407,-1.513527
UNIVERSITY HOSPITALS OF LEICESTER NHS TRUST (RWE),Acute,"£3,399,056",£3.42,943096.0,2455960.0,1479554.0,2646807.0,2775178.0,673314.0,2734223.0,3145506.0,3399056.0,Nervecentre Software Ltd,"LEICESTER ROYAL INFIRMARY, INFIRMARY SQUARE, LEICESTER, LE1 5WW",52.626782,-1.135961
UNIVERSITY HOSPITALS OF MORECAMBE BAY NHS FOUNDATION TRUST (RTX),Acute,"£668,441",£1.89,668441.0,0.0,1106548.0,938253.0,927861.0,857635.0,889653.0,704253.0,668441.0,Dedalus Healthcare Ltd,"WESTMORLAND GENERAL HOSPITAL, BURTON ROAD, KENDAL, LA9 7RG",54.306107,-2.731604
UNIVERSITY HOSPITALS OF NORTH MIDLANDS NHS TRUST (RJE),Acute,"£1,352,155",£2.05,343478.0,1008677.0,2163818.0,1205235.0,1292514.0,1325081.0,1331438.0,1348596.0,1352155.0,System C Healthcare Ltd,"NEWCASTLE ROAD, STOKE-ON-TRENT, ST4 6QG",53.003244,-2.211799
UNIVERSITY HOSPITALS PLYMOUTH NHS TRUST (RK9),Acute,"£3,828,057",£8.46,149191.0,3678866.0,1110228.0,1336401.0,1600912.0,2457339.0,2512169.0,3790452.0,3828057.0,No EPR -  in process of getting one,"DERRIFORD HOSPITAL, DERRIFORD ROAD, DERRIFORD, PLYMOUTH, PL6 8DH",50.41672,-4.113685
UNIVERSITY HOSPITALS SUSSEX NHS FOUNDATION TRUST (RYR),Acute,"£5,480,595",£5.41,3200340.0,2280255.0,2738018.0,2539402.0,2471959.0,2150931.0,5190934.0,4762311.0,5480595.0,Generic or In House EPR Provider,"WORTHING HOSPITAL, LYNDHURST ROAD, WORTHING, BN11 2DH",50.816691,-0.363429
WALSALL HEALTHCARE NHS TRUST (RBK),Acute,"£1,800,964",£6.83,442836.0,1358128.0,1198802.0,1477968.0,1434427.0,1510729.0,1441427.0,1516524.0,1800964.0,System C Healthcare Ltd,"MANOR HOSPITAL, MOAT ROAD, WALSALL, WS2 9PS",52.58233,-1.998924
WARRINGTON AND HALTON TEACHING HOSPITALS NHS FOUNDATION TRUST (RWW),Acute,"£810,046",£2.96,326837.0,483209.0,801258.0,865325.0,923613.0,860564.0,604285.0,795272.0,810046.0,Dedalus Healthcare Ltd,"WARRINGTON HOSPITAL, LOVELY LANE, WARRINGTON, WA5 1QG",53.393973,-2.610717
WEST HERTFORDSHIRE TEACHING HOSPITALS NHS TRUST (RWG),Acute,"£1,123,377",£2.41,625714.0,497663.0,1243433.0,1442012.0,1437745.0,1380377.0,1418745.0,1634164.0,1123377.0,Oracle Cerner Corporation,"TRUST OFFICES, WATFORD GENERAL HOSPITAL, VICARAGE ROAD, WATFORD, WD18 0HB",51.648921,-0.404187
WEST LONDON NHS TRUST (RKL),Mental Health and Community (Combined),"£179,026",-,114660.0,64366.0,188596.0,217115.0,165113.0,182556.0,233396.0,194111.0,179026.0,TPP,"1 ARMSTRONG WAY, SOUTHALL, UB2 4SD",51.506314,-0.358568
WEST MIDLANDS AMBULANCE SERVICE UNIVERSITY NHS FOUNDATION TRUST (RYA),Ambulance,£0,-,0.0,0.0,0.0,0.0,0.0,0.0,0.0,0.0,0.0,Cleric Computer Services Ltd,"MILLENNIUM POINT, WATERFRONT BUSINESS PARK, DUDLEY ROAD, BRIERLEY HILL, DY5 1LX",52.485647,-2.119045
WEST SUFFOLK NHS FOUNDATION TRUST (RGR),Acute,"£1,074,054",£3.86,0.0,1074054.0,1137179.0,1305402.0,845278.0,804335.0,744661.0,879508.0,1074054.0,Oracle Cerner Corporation,"WEST SUFFOLK HOSPITAL, HARDWICK LANE, BURY ST. EDMUNDS, IP33 2QZ",52.231662,0.709176
WHITTINGTON HEALTH NHS TRUST (RKE),Acute,"£844,030",£3.92,78200.0,765830.0,342382.0,890152.0,1100339.0,862848.0,1109776.0,810326.0,844030.0,System C Healthcare Ltd,"THE WHITTINGTON HOSPITAL, MAGDALA AVENUE, LONDON, N19 5NF",51.566479,-0.139092
WIRRAL COMMUNITY HEALTH AND CARE NHS FOUNDATION TRUST (RY7),Community,"£46,755",-,46755.0,0.0,0.0,0.0,59803.0,33777.0,34090.0,31282.0,46755.0,TPP,"DERBY ROAD, BIRKENHEAD, CH42 0LQ",53.380029,-3.026531
WIRRAL UNIVERSITY TEACHING HOSPITAL NHS FOUNDATION TRUST (RBL),Acute,"£281,644",£0.82,45959.0,235685.0,990424.0,982303.0,913455.0,213326.0,273686.0,226969.0,281644.0,Oracle Cerner Corporation,"ARROWE PARK HOSPITAL, ARROWE PARK ROAD, UPTON, WIRRAL, CH49 5PE",53.369623,-3.096815
WORCESTERSHIRE ACUTE HOSPITALS NHS TRUST (RWP),Acute,"£846,569",£1.47,102091.0,744478.0,423683.0,409692.0,568527.0,2055000.0,1913484.0,0.0,846569.0,Altera Digital Health,"WORCESTERSHIRE ROYAL HOSPITAL, CHARLES HASTINGS WAY, WORCESTER, WR5 1DD",52.191193,-2.181158
"WRIGHTINGTON, WIGAN AND LEIGH NHS FOUNDATION TRUST (RRF)",Acute,"£762,116",£2.58,44332.0,717784.0,560326.0,644678.0,681800.0,617330.0,606359.0,789055.0,762116.0,Altera Digital Health,"ROYAL ALBERT EDWARD INFIRMARY, WIGAN LANE, WIGAN, WN1 2NN",53.55774,-2.629091
WYE VALLEY NHS TRUST (RLQ),Acute,"£1,177,228",£5.75,237992.0,939236.0,816698.0,917276.0,1171791.0,1110520.0,1087129.0,1212241.0,1177228.0,IMS Maxims Ltd,"COUNTY HOSPITAL, 27 UNION WALK, HEREFORD, HR1 2ER",52.057013,-2.705709
YORK AND SCARBOROUGH TEACHING HOSPITALS NHS FOUNDATION TRUST (RCB),Acute,"£2,510,729",£4.70,127042.0,2383687.0,2755771.0,2260620.0,2131466.0,2441768.0,2293257.0,2032564.0,2510729.0,Generic or In House EPR Provider,"YORK HOSPITAL, WIGGINTON ROAD, YORK, YO31 8HE",53.968952,-1.084285
YORKSHIRE AMBULANCE SERVICE NHS TRUST (RX8),Ambulance,£0,-,0.0,0.0,0.0,0.0,0.0,0.0,0.0,0.0,0.0,Generic or In House EPR Provider,"SPRINGHILL, 2 BRINDLEY WAY, WAKEFIELD 41 INDUSTRIAL ESTATE, WAKEFIELD, WF2 0XQ",53.709405,-1.518786
